NORAD_CAT_ID,OBJECT_NAME,OBJECT_TYPE,EPOCH,MEAN_MOTION,ECCENTRICITY,INCLINATION,RA_OF_ASC_NODE,ARG_OF_PERICENTER,MEAN_ANOMALY,BSTAR,MEAN_MOTION_DOT,MEAN_MOTION_DDOT,TLE_LINE0,TLE_LINE1,TLE_LINE2,SEMIMAJOR_AXIS,PERIOD,APOGEE,PERIGEE,DECAYED
52357.0,STARLINK-3821,PAYLOAD,2022-05-15 22:00:00,15.73176797,0.0001197,53.2125,356.9240000000001,101.3493,340.4121,0.00045351,0.00063446,0.0,0 STARLINK-3821,1 52357U 22045AC  22135.91667824  .00063446  00000-0  45351-3 0  9995,2 52357  53.2125 356.9240 0001197 101.3493 340.4121 15.73176797  1302,6727.9609999999975,91.535,350.63199999999995,349.021,0.0
52357.0,STARLINK-3821,PAYLOAD,2022-05-16 12:00:00,15.731150199999998,0.0001097,53.2143,354.0349,110.2525,37.1441,0.00062436,0.00087602,0.0,0 STARLINK-3821,1 52357U 22045AC  22136.50001157  .00087602  00000-0  62436-3 0  9995,2 52357  53.2143 354.0349 0001097 110.2525  37.1441 15.73115020  5160,6728.137,91.538,350.741,349.264,0.0
52357.0,STARLINK-3821,PAYLOAD,2022-05-16 14:00:01,15.73130884,0.0001161,53.2146,353.6225,109.5329,150.0723,0.00059953,0.00084116,0.0,0 STARLINK-3821,1 52357U 22045AC  22136.58334491  .00084116  00000-0  59953-3 0  9990,2 52357  53.2146 353.6225 0001161 109.5329 150.0723 15.73130884  1301,6728.092,91.537,350.73800000000006,349.176,0.0
52357.0,STARLINK-3821,PAYLOAD,2022-05-16 22:00:00,15.73218737,0.0001132,53.2143,351.975,95.5779,252.9342,0.00010479,0.00014123,0.0,0 STARLINK-3821,1 52357U 22045AC  22136.91667824  .00014123  00000-0  10479-3 0  9997,2 52357  53.2143 351.9750 0001132  95.5779 252.9342 15.73218737  1306,6727.842,91.532,350.468,348.945,0.0
52357.0,STARLINK-3821,PAYLOAD,2022-05-17 12:00:00,15.73225392,0.0001346,53.2138,349.0858,106.6981,307.4752,-5.4092e-05,-8.212e-05,0.0,0 STARLINK-3821,1 52357U 22045AC  22137.50001157 -.00008212  00000-0 -54092-4 0  9998,2 52357  53.2138 349.0858 0001346 106.6981 307.4752 15.73225392  5325,6727.823,91.532,350.593,348.782,0.0
52357.0,STARLINK-3821,PAYLOAD,2022-05-17 14:00:01,15.73248535,0.0001414,53.214,348.6735,108.0265,58.44300000000001,-0.00038985,-0.0005508999999999,0.0,0 STARLINK-3821,1 52357U 22045AC  22137.58335648 -.00055090  00000-0 -38985-3 0  9999,2 52357  53.2140 348.6735 0001414 108.0265  58.4430 15.73248535  1308,6727.757,91.53,350.5730000000001,348.67,0.0
52357.0,STARLINK-3821,PAYLOAD,2022-05-17 22:00:01,15.73207705,0.0001344,53.214,347.026,96.2957,159.159,-0.00014061,-0.00020313,0.0,0 STARLINK-3821,1 52357U 22045AC  22137.91668981 -.00020313  00000-0 -14061-3 0  9994,2 52357  53.2140 347.0260 0001344  96.2957 159.1590 15.73207705  1302,6727.873000000001,91.533,350.642,348.834,0.0
52357.0,STARLINK-3821,PAYLOAD,2022-05-18 14:00:01,15.73214837,0.0001317,53.2146,343.7243,105.19,328.0661,3.7027e-05,4.583e-05,0.0,0 STARLINK-3821,1 52357U 22045AC  22138.58334491  .00004583  00000-0  37027-4 0  9991,2 52357  53.2146 343.7243 0001317 105.1900 328.0661 15.73214837  1300,6727.853,91.532,350.60400000000016,348.832,0.0
52357.0,STARLINK-3821,PAYLOAD,2022-05-18 20:00:01,15.73233599,0.0001002,53.2143,342.4888,98.4349,311.5319,-0.00083854,-0.00116846,0.0,0 STARLINK-3821,1 52357U 22045AC  22138.83334491 -.00116846  00000-0 -83854-3 0  9995,2 52357  53.2143 342.4888 0001002  98.4349 311.5319 15.73233599  5532,6727.799,91.531,350.339,348.99,0.0
52357.0,STARLINK-3821,PAYLOAD,2022-05-18 22:00:00,15.73181077,9.21e-05,53.2144,342.0767,93.3518,68.8621,-0.000236,-0.0003358,0.0,0 STARLINK-3821,1 52357U 22045AC  22138.91667824 -.00033580  00000-0 -23600-3 0  9999,2 52357  53.2144 342.0767 0000921  93.3518  68.8621 15.73181077  1308,6727.949000000001,91.534,350.434,349.194,0.0
52357.0,STARLINK-3821,PAYLOAD,2022-05-19 06:00:00,15.73172823,7.2e-05,53.2139,340.4258,104.6776,146.4183,0.00015653,0.00021379,0.0,0 STARLINK-3821,1 52357U 22045AC  22139.25001157  .00021379  00000-0  15653-3 0  9998,2 52357  53.2139 340.4258 0000720 104.6776 146.4183 15.73172823  5598,6727.973000000001,91.535,350.32199999999995,349.353,0.0
52357.0,STARLINK-3821,PAYLOAD,2022-05-19 14:00:01,15.73193341,9.1e-05,53.2142,338.7756,111.5495,228.5092,-1.6988e-05,-3.002e-05,0.0,0 STARLINK-3821,1 52357U 22045AC  22139.58335648 -.00003002  00000-0 -16988-4 0  9997,2 52357  53.2142 338.7756 0000910 111.5495 228.5092 15.73193341  1305,6727.9140000000025,91.534,350.391,349.167,0.0
52357.0,STARLINK-3821,PAYLOAD,2022-05-19 22:00:00,15.73207065,9.23e-05,53.2143,337.1282,92.5625,336.3807,4.5349e-06,1.7e-07,0.0,0 STARLINK-3821,1 52357U 22045AC  22139.91667824  .00000017  00000-0  45349-5 0  9993,2 52357  53.2143 337.1282 0000923  92.5625 336.3807 15.73207065  1301,6727.875,91.533,350.361,349.119,0.0
52357.0,STARLINK-3821,PAYLOAD,2022-05-20 14:00:01,15.73259205,0.0001137,53.2148,333.8267,100.5848,146.2448,-0.00051172,-0.00072004,0.0,0 STARLINK-3821,1 52357U 22045AC  22140.58334491 -.00072004  00000-0 -51172-3 0  9995,2 52357  53.2148 333.8267 0001137 100.5848 146.2448 15.73259205  5808,6727.726,91.53,350.356,348.826,0.0
52357.0,STARLINK-3821,PAYLOAD,2022-05-20 22:00:00,15.73187174,0.0001123,53.2146,332.1791,85.1333,250.6784,-6.331300000000001e-05,-9.49e-05,0.0,0 STARLINK-3821,1 52357U 22045AC  22140.91667824 -.00009490  00000-0 -63313-4 0  9991,2 52357  53.2146 332.1791 0001123  85.1333 250.6784 15.73187174  1301,6727.932,91.534,350.552,349.041,0.0
52357.0,STARLINK-3821,PAYLOAD,2022-05-21 06:00:00,15.73411159,0.000118,53.2155,330.5272,78.2208,346.4689,-0.0038164,-0.00509603,0.0,0 STARLINK-3821,1 52357U 22045AC  22141.25001157 -.00509603  00000-0 -38164-2 0  9995,2 52357  53.2155 330.5272 0001180  78.2208 346.4689 15.73411159  5916,6727.293000000002,91.521,349.952,348.36400000000015,0.0
52357.0,STARLINK-3821,PAYLOAD,2022-05-21 14:00:01,15.73190642,9.68e-05,53.2144,328.8782,97.2065,56.5094,0.00031261,0.00043462,0.0,0 STARLINK-3821,1 52357U 22045AC  22141.58335648  .00043462  00000-0  31261-3 0  9992,2 52357  53.2144 328.8782 0000968  97.2065  56.5094 15.73190642  5960,6727.922,91.534,350.43800000000016,349.136,0.0
52357.0,STARLINK-3821,PAYLOAD,2022-05-21 22:00:00,15.73182623,0.0001044,53.2144,327.2307,76.704,165.9021,0.00051432,0.00072129,0.0,0 STARLINK-3821,1 52357U 22045AC  22141.91667824  .00072129  00000-0  51432-3 0  9997,2 52357  53.2144 327.2307 0001044  76.7040 165.9021 15.73182623  1306,6727.945,91.534,350.51199999999994,349.107,0.0
52357.0,STARLINK-3821,PAYLOAD,2022-05-22 06:00:00,15.73230954,0.0001051,53.2145,325.5793,87.3846,244.1516,-0.00030705,-0.00043545,0.0,0 STARLINK-3821,1 52357U 22045AC  22142.25001157 -.00043545  00000-0 -30705-3 0  9998,2 52357  53.2145 325.5793 0001051  87.3846 244.1516 15.73230954  6065,6727.807,91.531,350.379,348.965,0.0
52357.0,STARLINK-3821,PAYLOAD,2022-05-22 14:00:01,15.73196597,9.78e-05,53.2147,323.9296,87.8942,332.5638,-0.00024352,-0.00034649,0.0,0 STARLINK-3821,1 52357U 22045AC  22142.58334491 -.00034649  00000-0 -24352-3 0  9990,2 52357  53.2147 323.9296 0000978  87.8942 332.5638 15.73196597  1309,6727.905,91.533,350.42800000000005,349.112,0.0
52357.0,STARLINK-3821,PAYLOAD,2022-05-22 22:00:01,15.73140842,7.63e-05,53.2145,322.2818,60.6553,88.8176,0.00069293,0.00097515,0.0,0 STARLINK-3821,1 52357U 22045AC  22142.91668981  .00097515  00000-0  69293-3 0  9993,2 52357  53.2145 322.2818 0000763  60.6553  88.8176 15.73140842  1308,6728.064,91.537,350.44199999999995,349.415,0.0
52357.0,STARLINK-3821,PAYLOAD,2022-05-23 04:00:00,15.73205423,7.18e-05,53.214,321.0434,68.1296,57.9285,0.00012868,0.00017481,0.0,0 STARLINK-3821,1 52357U 22045AC  22143.16667824  .00017481  00000-0  12868-3 0  9996,2 52357  53.2140 321.0434 0000718  68.1296  57.9285 15.73205423  6211,6727.88,91.533,350.228,349.26199999999994,0.0
52357.0,STARLINK-3821,PAYLOAD,2022-05-23 14:00:01,15.7320626,0.0001002999999999,53.2142,318.9812,79.8512,247.3651,-0.00058076,-0.0008136,0.0,0 STARLINK-3821,1 52357U 22045AC  22143.58334491 -.00081360  00000-0 -58076-3 0  9993,2 52357  53.2142 318.9812 0001003  79.8512 247.3651 15.73206260  1303,6727.877,91.533,350.417,349.0680000000001,0.0
52357.0,STARLINK-3821,PAYLOAD,2022-05-23 16:00:00,15.73184882,0.0001105,53.214,318.5695,75.0823,4.3675,-0.00043492,-0.00061175,0.0,0 STARLINK-3821,1 52357U 22045AC  22143.66667824 -.00061175  00000-0 -43492-3 0  9999,2 52357  53.2140 318.5695 0001105  75.0823   4.3675 15.73184882  6297,6727.938,91.534,350.547,349.06,0.0
52357.0,STARLINK-3821,PAYLOAD,2022-05-23 22:00:01,15.73145575,0.0001236,53.2139,317.3334,68.415,347.7951,0.00025902,0.00035802,0.0,0 STARLINK-3821,1 52357U 22045AC  22143.91668981  .00035802  00000-0  25902-3 0  9994,2 52357  53.2139 317.3334 0001236  68.4150 347.7951 15.73145575  6338,6728.05,91.536,350.747,349.084,0.0
52357.0,STARLINK-3821,PAYLOAD,2022-05-24 04:00:00,15.73186024,6.04e-05,53.217,316.0934,63.7793,328.8816,0.00023546,0.00032533,0.0,0 STARLINK-3821,1 52357U 22045AC  22144.16667824  .00032533  00000-0  23546-3 0  9997,2 52357  53.2170 316.0934 0000604  63.7793 328.8816 15.73186024  6361,6727.935,91.534,350.206,349.394,0.0
52357.0,STARLINK-3821,PAYLOAD,2022-05-24 14:00:01,15.73252222,0.0001117,53.2145,314.0325,73.9534,160.06,-0.00072728,-0.00101688,0.0,0 STARLINK-3821,1 52357U 22045AC  22144.58334491 -.00101688  00000-0 -72728-3 0  9990,2 52357  53.2145 314.0325 0001117  73.9534 160.0600 15.73252222  6430,6727.746,91.53,350.36300000000006,348.86,0.0
52357.0,STARLINK-3821,PAYLOAD,2022-05-24 22:00:00,15.73154692,0.0001079,53.2139,312.3844,52.0265,270.9536,0.00084873,0.00119974,0.0,0 STARLINK-3821,1 52357U 22045AC  22144.91667824  .00119974  00000-0  84873-3 0  9995,2 52357  53.2139 312.3844 0001079  52.0265 270.9536 15.73154692  6482,6728.024,91.536,350.615,349.163,0.0
52357.0,STARLINK-3821,PAYLOAD,2022-05-25 06:00:00,15.73240009,9.58e-05,53.2138,310.7328,62.691,349.2084,-0.00027263,-0.0003877,0.0,0 STARLINK-3821,1 52357U 22045AC  22145.25001157 -.00038770  00000-0 -27263-3 0  9990,2 52357  53.2138 310.7328 0000958  62.6910 349.2084 15.73240009  6542,6727.781,91.531,350.291,349.00199999999984,0.0
